NORAD_CAT_ID,OBJECT_NAME,OBJECT_TYPE,EPOCH,MEAN_MOTION,ECCENTRICITY,INCLINATION,RA_OF_ASC_NODE,ARG_OF_PERICENTER,MEAN_ANOMALY,BSTAR,MEAN_MOTION_DOT,MEAN_MOTION_DDOT,TLE_LINE0,TLE_LINE1,TLE_LINE2,SEMIMAJOR_AXIS,PERIOD,APOGEE,PERIGEE,DECAYED
53556.0,STARLINK-4505,PAYLOAD,2023-05-22 05:40:04,15.08837196,8.06e-05,53.2158,334.0907,102.5744,257.5339,9.9624e-05,1.298e-05,0.0,0 STARLINK-4505,1 53556U 22101AF  23142.23616529  .00001298  00000-0  99624-4 0  9990,2 53556  53.2158 334.0907 0000806 102.5744 257.5339 15.08837196 41954,6917.889,95.438,540.312,539.196,0.0
53556.0,STARLINK-4505,PAYLOAD,2023-05-22 21:33:55,15.08852388,7.38e-05,53.2158,331.1164,109.2963,250.8109,0.00042162,6.431e-05,0.0,0 STARLINK-4505,1 53556U 22101AF  23142.89855987  .00006431  00000-0  42162-3 0  9993,2 53556  53.2158 331.1164 0000738 109.2963 250.8109 15.08852388 42051,6917.843,95.437,540.218,539.197,0.0
53556.0,STARLINK-4505,PAYLOAD,2023-05-23 02:20:04,15.08866161,6.44e-05,53.2156,330.2237,110.1395,249.9666,0.0010888,0.00017095,0.0,0 STARLINK-4505,1 53556U 22101AF  23143.09727999  .00017095  00000-0  10888-2 0  9994,2 53556  53.2156 330.2237 0000644 110.1395 249.9666 15.08866161 42080,6917.8,95.436,540.111,539.22,0.0
53556.0,STARLINK-4505,PAYLOAD,2023-05-23 11:52:24,15.08843523,5.55e-05,53.2156,328.44,104.4736,255.6317,0.00012155,1.648e-05,0.0,0 STARLINK-4505,1 53556U 22101AF  23143.49472372  .00001648  00000-0  12155-3 0  9997,2 53556  53.2156 328.4400 0000555 104.4736 255.6317 15.08843523 42148,6917.87,95.437,540.119,539.351,0.0
53556.0,STARLINK-4505,PAYLOAD,2023-05-23 21:24:42,15.08844248,5.53e-05,53.2156,326.6562,86.2626,273.8429,0.0010625,0.00016664,0.0,0 STARLINK-4505,1 53556U 22101AF  23143.89216433  .00016664  00000-0  10625-2 0  9998,2 53556  53.2156 326.6562 0000553  86.2626 273.8429 15.08844248 42208,6917.867,95.437,540.115,539.35,0.0
53556.0,STARLINK-4505,PAYLOAD,2023-05-24 05:21:38,15.08838984,5.84e-05,53.2156,325.1688,86.0915,274.0144,0.00039388,5.986e-05,0.0,0 STARLINK-4505,1 53556U 22101AF  23144.22336627  .00005986  00000-0  39388-3 0  9997,2 53556  53.2156 325.1688 0000584  86.0915 274.0144 15.08838984 42256,6917.883,95.438,540.152,539.344,0.0
53556.0,STARLINK-4505,PAYLOAD,2023-05-24 14:53:57,15.08840606,5.76e-05,53.2157,323.3843,80.8999,279.2058,0.00056562,8.726e-05,0.0,0 STARLINK-4505,1 53556U 22101AF  23144.62080795  .00008726  00000-0  56562-3 0  9991,2 53556  53.2157 323.3843 0000576  80.8999 279.2058 15.08840606 42317,6917.879,95.438,540.142,539.345,0.0
53556.0,STARLINK-4505,PAYLOAD,2023-05-25 17:55:30,15.08850437,6.37e-05,53.2159,318.3296,62.7601,297.3456,0.000553,8.527e-05,0.0,0 STARLINK-4505,1 53556U 22101AF  23145.74688637  .00008527  00000-0  55300-3 0  9992,2 53556  53.2159 318.3296 0000637  62.7601 297.3456 15.08850437 42486,6917.848,95.437,540.154,539.273,0.0
53556.0,STARLINK-4505,PAYLOAD,2023-05-25 21:06:17,15.08855384,7.21e-05,53.216,317.7346,65.814,294.2927,0.00062673,9.705e-05,0.0,0 STARLINK-4505,1 53556U 22101AF  23145.87936495  .00009705  00000-0  62673-3 0  9994,2 53556  53.2160 317.7346 0000721  65.8140 294.2927 15.08855384 42501,6917.833,95.437,540.197,539.2,0.0
53556.0,STARLINK-4505,PAYLOAD,2023-05-26 17:46:18,15.08842351,7.4e-05,53.2161,313.8687,68.157,291.95,0.00011951,1.615e-05,0.0,0 STARLINK-4505,1 53556U 22101AF  23146.74048768  .00001615  00000-0  11951-3 0  9993,2 53556  53.2161 313.8687 0000740  68.1570 291.9500 15.08842351 42636,6917.873,95.437,540.25,539.226,0.0
53556.0,STARLINK-4505,PAYLOAD,2023-05-27 17:37:05,15.08841764,6.92e-05,53.217,309.4066,85.4381,274.6691,9.3107e-05,1.195e-05,0.0,0 STARLINK-4505,1 53556U 22101AF  23147.73408710  .00001195  00000-0  93107-4 0  9997,2 53556  53.2170 309.4066 0000692  85.4381 274.6691 15.08841764 42788,6917.875,95.437,540.219,539.261,0.0
53556.0,STARLINK-4505,PAYLOAD,2023-05-28 06:20:10,15.0883669,6.82e-05,53.2167,307.0293,85.04,275.067,7.963e-05,9.8e-06,0.0,0 STARLINK-4505,1 53556U 22101AF  23148.26401006  .00000980  00000-0  79630-4 0  9993,2 53556  53.2167 307.0293 0000682  85.0400 275.0670 15.08836690 42860,6917.891,95.438,540.227,539.284,0.0
53556.0,STARLINK-4505,PAYLOAD,2023-05-28 11:06:19,15.08836916,6.84e-05,53.2167,306.1371,84.5517,275.5553,7.8514e-05,9.62e-06,0.0,0 STARLINK-4505,1 53556U 22101AF  23148.46273023  .00000962  00000-0  78514-4 0  9991,2 53556  53.2167 306.1371 0000684  84.5517 275.5553 15.08836916 42891,6917.89,95.438,540.228,539.282,0.0
53556.0,STARLINK-4505,PAYLOAD,2023-05-28 17:27:51,15.0884509,6.71e-05,53.2161,304.949,87.4797,272.6272,0.00012419,1.69e-05,0.0,0 STARLINK-4505,1 53556U 22101AF  23148.72768438  .00001690  00000-0  12419-3 0  9999,2 53556  53.2161 304.9490 0000671  87.4797 272.6272 15.08845090 42935,6917.865,95.437,540.194,539.266,0.0
53556.0,STARLINK-4505,PAYLOAD,2023-05-28 20:38:38,15.08846492,6.89e-05,53.2162,304.3539,85.0554,275.0517,0.00015268,2.144e-05,0.0,0 STARLINK-4505,1 53556U 22101AF  23148.86016292  .00002144  00000-0  15268-3 0  9998,2 53556  53.2162 304.3539 0000689  85.0554 275.0517 15.08846492 42956,6917.861,95.437,540.202,539.249,0.0
53556.0,STARLINK-4505,PAYLOAD,2023-05-29 10:57:07,15.08834529,6.75e-05,53.2155,301.6786,80.5591,279.5477,5.6736e-05,6.15e-06,0.0,0 STARLINK-4505,1 53556U 22101AF  23149.45633372  .00000615  00000-0  56736-4 0  9995,2 53556  53.2155 301.6786 0000675  80.5591 279.5477 15.08834529 43041,6917.897,95.438,540.229,539.295,0.0
53556.0,STARLINK-4505,PAYLOAD,2023-05-29 14:07:53,15.08836718,6.62e-05,53.2172,301.0809,90.5539,269.5529,3.3223e-05,2.41e-06,0.0,0 STARLINK-4505,1 53556U 22101AF  23149.58881215  .00000241  00000-0  33223-4 0  9991,2 53556  53.2172 301.0809 0000662  90.5539 269.5529 15.08836718 43060,6917.89,95.438,540.213,539.297,0.0
53556.0,STARLINK-4505,PAYLOAD,2023-05-29 17:18:39,15.08839322,5.99e-05,53.2161,300.4888,96.934,263.172,7.3715e-05,8.86e-06,0.0,0 STARLINK-4505,1 53556U 22101AF  23149.72128958  .00000886  00000-0  73715-4 0  9990,2 53556  53.2161 300.4888 0000599  96.9340 263.1720 15.08839322 43086,6917.882,95.438,540.162,539.333,0.0
53556.0,STARLINK-4505,PAYLOAD,2023-05-30 12:23:17,15.08837198,6.09e-05,53.2163,296.9202,92.4453,267.6609,5.8562e-05,6.44e-06,0.0,0 STARLINK-4505,1 53556U 22101AF  23150.51617298  .00000644  00000-0  58562-4 0  9994,2 53556  53.2163 296.9202 0000609  92.4453 267.6609 15.08837198 43203,6917.889,95.438,540.175,539.333,0.0
53556.0,STARLINK-4505,PAYLOAD,2023-05-30 15:34:03,15.08839682,5.89e-05,53.2161,296.3256,90.8814,269.2246,7.6463e-05,9.3e-06,0.0,0 STARLINK-4505,1 53556U 22101AF  23150.64865162  .00000930  00000-0  76463-4 0  9991,2 53556  53.2161 296.3256 0000589  90.8814 269.2246 15.08839682 43221,6917.881,95.438,540.154,539.339,0.0
53556.0,STARLINK-4505,PAYLOAD,2023-05-31 13:49:27,15.08839089,5.31e-05,53.2155,292.1625,88.8914,271.2139,0.00010588,1.398e-05,0.0,0 STARLINK-4505,1 53556U 22101AF  23151.57601048  .00001398  00000-0  10588-3 0  9999,2 53556  53.2155 292.1625 0000531  88.8914 271.2139 15.08839089 43363,6917.883,95.438,540.116,539.381,0.0
53556.0,STARLINK-4505,PAYLOAD,2023-05-31 17:00:13,15.08845263,5.83e-05,53.2155,291.5675,86.355,273.7509,0.00014366,2e-05,0.0,0 STARLINK-4505,1 53556U 22101AF  23151.70848736  .00002000  00000-0  14366-3 0  9990,2 53556  53.2155 291.5675 0000583  86.3550 273.7509 15.08845263 43388,6917.864,95.437,540.133,539.326,0.0
53556.0,STARLINK-4505,PAYLOAD,2023-06-01 02:32:32,15.08846802,6.07e-05,53.2156,289.7831,83.1773,276.9288,0.00017213,2.453e-05,0.0,0 STARLINK-4505,1 53556U 22101AF  23152.10592604  .00002453  00000-0  17213-3 0  9991,2 53556  53.2156 289.7831 0000607  83.1773 276.9288 15.08846802 43447,6917.86,95.437,540.145,539.305,0.0
53556.0,STARLINK-4505,PAYLOAD,2023-06-01 13:40:14,15.08835281,6.09e-05,53.2155,287.7018,84.0385,276.0677,4.9088e-05,4.94e-06,0.0,0 STARLINK-4505,1 53556U 22101AF  23152.56961495  .00000494  00000-0  49088-4 0  9998,2 53556  53.2155 287.7018 0000609  84.0385 276.0677 15.08835281 43512,6917.895,95.438,540.181,539.339,0.0
53556.0,STARLINK-4505,PAYLOAD,2023-06-02 02:23:19,15.08840828,6.84e-05,53.2157,285.3223,76.1847,283.9222,7.0588e-05,8.36e-06,0.0,0 STARLINK-4505,1 53556U 22101AF  23153.09953348  .00000836  00000-0  70588-4 0  9994,2 53556  53.2157 285.3223 0000684  76.1847 283.9222 15.08840828 43598,6917.878,95.438,540.216,539.27,0.0
53556.0,STARLINK-4505,PAYLOAD,2023-06-02 13:31:01,15.08838872,7.58e-05,53.2158,283.2408,73.8134,286.2941,0.00016757,2.38e-05,0.0,0 STARLINK-4505,1 53556U 22101AF  23153.56321604  .00002380  00000-0  16757-3 0  9993,2 53556  53.2158 283.2408 0000758  73.8134 286.2941 15.08838872 43664,6917.884,95.438,540.273,539.224,0.0
53556.0,STARLINK-4505,PAYLOAD,2023-06-02 15:06:24,15.08844479,7.77e-05,53.2165,282.9437,72.6968,287.4109,6.1007e-05,6.84e-06,0.0,0 STARLINK-4505,1 53556U 22101AF  23153.62945224  .00000684  00000-0  61007-4 0  9994,2 53556  53.2165 282.9437 0000777  72.6968 287.4109 15.08844479 43673,6917.867,95.437,540.269,539.194,0.0
53556.0,STARLINK-4505,PAYLOAD,2023-06-03 13:21:49,15.08833301,7.98e-05,53.2165,278.7804,72.6354,287.4725,3.4076e-05,2.55e-06,0.0,0 STARLINK-4505,1 53556U 22101AF  23154.55682167  .00000255  00000-0  34076-4 0  9991,2 53556  53.2165 278.7804 0000798  72.6354 287.4725 15.08833301 43818,6917.901,95.438,540.318,539.214,0.0
53556.0,STARLINK-4505,PAYLOAD,2023-06-03 18:07:58,15.08836983,7.9e-05,53.2163,277.887,84.1152,275.9931,6.9941e-05,8.26e-06,0.0,0 STARLINK-4505,1 53556U 22101AF  23154.75553832  .00000826  00000-0  69941-4 0  9992,2 53556  53.2163 277.8870 0000790  84.1152 275.9931 15.08836983 43848,6917.89,95.438,540.301,539.208,0.0
53556.0,STARLINK-4505,PAYLOAD,2023-06-04 14:47:58,15.08847588,7.9e-05,53.216,274.0221,55.2433,304.8633,0.00010294,1.351e-05,0.0,0 STARLINK-4505,1 53556U 22101AF  23155.61665167  .00001351  00000-0  10294-3 0  9993,2 53556  53.2160 274.0221 0000790  55.2433 304.8633 15.08847588 43973,6917.857,95.437,540.269,539.176,0.0
